ONEWEB-0389             
1 50469U 21132A   25142.35525019  .00000147  00000+0  34421-3 0  9995
2 50469  87.9060  83.6891 0002379  72.3884 287.7507 13.17647398166619
ONEWEB-0390             
1 50470U 21132B   25142.58473696  .00000020  00000+0  19520-4 0  9999
2 50470  87.9061  83.6503 0002281  85.7608 274.3785 13.17650838166642
ONEWEB-0391             
1 50471U 21132C   25142.35862130  .00000126  00000+0  29173-3 0  9991
2 50471  87.9069  83.7061 0002896  73.5288 286.6162 13.17647785166611
ONEWEB-0392             
1 50472U 21132D   25142.54086551  .00000107  00000+0  24304-3 0  9998
2 50472  87.9056  83.6209 0002400  73.8363 286.3033 13.17648541166670
ONEWEB-0393             
1 50473U 21132E   25142.58994085 -.00000039  00000+0 -13364-3 0  9993
2 50473  87.9065  83.6224 0002235  77.8398 282.2983 13.17647595166673
ONEWEB-0394             
1 50474U 21132F   25142.48564700  .00000014  00000+0  37337-5 0  9999
2 50474  87.9155  53.0865 0002019  74.7873 285.3482 13.18684289170103
ONEWEB-0395             
1 50475U 21132G   25142.60386420 -.00000447  00000+0 -12981-2 0  9992
2 50475  87.8827  98.9381 0002381  82.1041 278.0357 13.11416305164526
ONEWEB-0396             
1 50476U 21132H   25142.47933078  .00000026  00000+0  33699-4 0  9997
2 50476  87.9160  53.1003 0002014  74.3186 285.8168 13.18685068170140
ONEWEB-0397             
1 50477U 21132J   25142.49355384  .00000015  00000+0  41318-5 0  9994
2 50477  87.9158  53.0986 0001873  73.3940 286.7397 13.18684961170129
ONEWEB-0398             
1 50478U 21132K   25142.57166723  .00000292  00000+0  78689-3 0  9997
2 50478  87.8818  98.9103 0002354  91.7733 268.3664 13.11415826164413
ONEWEB-0399             
1 50479U 21132L   25142.40551837  .00000615  00000+0  16995-2 0  9994
2 50479  87.8822  98.9661 0002054  72.5145 287.6208 13.11416285164383
ONEWEB-0400             
1 50480U 21132M   25142.47299298 -.00000011  00000+0 -60155-4 0  9994
2 50480  87.9156  53.0941 0002079  83.8911 276.2458 13.18684117170119
ONEWEB-0401             
1 50481U 21132N   25142.51568477 -.00000046  00000+0 -14854-3 0  9990
2 50481  87.9159  53.0788 0001765  74.3440 285.7887 13.18684850170121
ONEWEB-0402             
1 50482U 21132P   25142.48090217  .00000029  00000+0  39663-4 0  9994
2 50482  87.9154  53.0829 0001455  65.0581 295.0702 13.18684703170141
ONEWEB-0403             
1 50483U 21132Q   25142.50462085 -.00000039  00000+0 -13237-3 0  9995
2 50483  87.9161  53.0933 0002072  77.2895 282.8469 13.18684730170105
ONEWEB-0404             
1 50484U 21132R   25142.38685202  .00000086  00000+0  20781-3 0  9992
2 50484  87.8831  98.9688 0002357  75.8837 284.2552 13.11419068164475
ONEWEB-0405             
1 50485U 21132S   25142.44454921  .00000015  00000+0  40589-5 0  9994
2 50485  87.9154  53.0944 0001757  70.0933 290.0389 13.18686055170490
ONEWEB-0406             
1 50486U 21132T   25142.50936512 -.00000005  00000+0 -46184-4 0  9990
2 50486  87.9161  53.1014 0002525  79.6520 280.4897 13.18684822170137
ONEWEB-0407             
1 50487U 21132U   25142.50303670  .00000059  00000+0  11566-3 0  9996
2 50487  87.9158  53.0887 0001878  73.9282 286.2057 13.18685423170076
ONEWEB-0409             
1 50488U 21132V   25142.38516141 -.00000007  00000+0 -56298-4 0  9999
2 50488  87.8822  98.9363 0002398  81.8124 278.3276 13.11419076164364
ONEWEB-0412             
1 50489U 21132W   25142.49196370 -.00000016  00000+0 -74188-4 0  9998
2 50489  87.9154  53.1059 0001643  70.2183 289.9127 13.18685107170163
ONEWEB-0413             
1 50490U 21132X   25142.49671616 -.00000047  00000+0 -15318-3 0  9994
2 50490  87.9161  53.1175 0001616  74.7250 285.4061 13.18684833170103
ONEWEB-0414             
1 50491U 21132Y   25142.48248500  .00000052  00000+0  98477-4 0  9998
2 50491  87.9153  53.0852 0001864  71.4617 288.6717 13.18684246170136
ONEWEB-0417             
1 50492U 21132Z   25142.49039338  .00000002  00000+0 -28671-4 0  9992
2 50492  87.9162  53.1103 0002124  76.6525 283.4844 13.18685524170114
ONEWEB-0418             
1 50493U 21132AA  25142.49974322  .00000017  00000+0  97125-5 0  9990
2 50493  87.9155  53.0980 0002265  74.5819 285.5563 13.18685890170171
ONEWEB-0419             
1 50494U 21132AB  25142.28963309  .00000017  00000+0  10137-4 0  9998
2 50494  87.9153  53.1447 0002256  83.0144 277.1244 13.18685060170065
ONEWEB-0420             
1 50495U 21132AC  25142.25643557  .00000067  00000+0  13742-3 0  9995
2 50495  87.9152  53.1604 0001676  82.0227 278.1095 13.18684592170059
ONEWEB-0421             
1 50496U 21132AD  25142.47774368  .00000069  00000+0  14147-3 0  9997
2 50496  87.9156  53.1072 0001829  69.6584 290.4744 13.18684892170129
ONEWEB-0424             
1 50497U 21132AE  25142.28489394  .00000023  00000+0  26317-4 0  9992
2 50497  87.9159  53.1369 0002249  88.1063 272.0326 13.18685300170124
ONEWEB-0426             
1 50498U 21132AF  25142.47458148  .00000017  00000+0  93952-5 0  9990
2 50498  87.9147  53.1016 0002283  60.2747 299.8612 13.18684280170096
ONEWEB-0427             
1 50499U 21132AG  25142.51093338  .00000073  00000+0  15183-3 0  9992
2 50499  87.9154  53.0774 0002139  76.1828 283.9542 13.18684877170123
ONEWEB-0429             
1 50500U 21132AH  25142.49828941 -.00000014  00000+0 -68380-4 0  9993
2 50500  87.9160  53.1066 0001835  82.4923 277.6417 13.18685200170094
ONEWEB-0430             
1 50501U 21132AJ  25142.48723310 -.00000028  00000+0 -10328-3 0  9990
2 50501  87.9162  53.1026 0002018  88.4158 271.7205 13.18684509170139
ONEWEB-0432             
1 50502U 21132AK  25142.44297426 -.00000011  00000+0 -60104-4 0  9991
2 50502  87.9153  53.0996 0002869  82.7212 277.4246 13.18684674170082
ONEWEB-0440             
1 50503U 21132AL  25142.50618995 -.00000078  00000+0 -23159-3 0  9998
2 50503  87.9162  53.0868 0001570  72.3092 287.8212 13.18684651170083
ONEWEB-0450             
1 50504U 21132AM  25142.50001037  .00000068  00000+0  13956-3 0  9993
2 50504  87.9160  53.1163 0001745  88.0127 272.1205 13.18685188170117
ONEWEB-0410             
1 51622U 22012A   25142.37380637  .00000082  00000+0  17720-3 0  9993
2 51622  87.9059  83.6554 0003132  60.1984 299.9459 13.17647620162232
ONEWEB-0411             
1 51623U 22012B   25142.44440913  .00000572  00000+0  16016-2 0  9996
2 51623  87.8807 114.1744 0002327  99.4940 260.6451 13.10373716158110
ONEWEB-0415             
1 51624U 22012C   25142.44108894  .00000594  00000+0  16666-2 0  9991
2 51624  87.8805 114.1813 0002219  92.6807 267.4574 13.10374194158115
ONEWEB-0416             
1 51625U 22012D   25142.60542313  .00000637  00000+0  17894-2 0  9990
2 51625  87.8807 114.1633 0002148  85.4815 274.6558 13.10371132158175
ONEWEB-0422             
1 51626U 22012E   25142.53580775  .00000077  00000+0  16546-3 0  9999
2 51626  87.9063  83.6299 0001312  88.9726 271.1556 13.17648127163646
ONEWEB-0423             
1 51627U 22012F   25142.52905216  .00000075  00000+0  15918-3 0  9990
2 51627  87.9063  83.6375 0001972  78.5298 281.6054 13.17647877162259
ONEWEB-0425             
1 51628U 22012G   25142.46268380  .00000251  00000+0  68149-3 0  9998
2 51628  87.8801 114.1636 0002148  75.8259 284.3107 13.10370857158159
ONEWEB-0428             
1 51629U 22012H   25142.44274788  .00000609  00000+0  17070-2 0  9999
2 51629  87.8809 114.1883 0001931  89.5522 270.5826 13.10373535158113
ONEWEB-0431             
1 51630U 22012J   25142.33635155 -.00000570  00000+0 -16697-2 0  9991
2 51630  87.8804 114.1842 0002013 101.9612 258.1741 13.10373947158155
ONEWEB-0434             
1 51631U 22012K   25142.46597415  .00000082  00000+0  19860-3 0  9994
2 51631  87.8802 114.1963 0002237  67.8944 292.2421 13.10368902158153
ONEWEB-0435             
1 51632U 22012L   25142.47426060 -.00000362  00000+0 -10741-2 0  9994
2 51632  87.8804 114.1872 0001620  90.0804 270.0509 13.10369541158143
ONEWEB-0436             
1 51633U 22012M   25142.59656497  .00000000  00000+0 -34253-4 0  9991
2 51633  87.9059  83.6140 0001870  86.3598 273.7747 13.17647859162248
ONEWEB-0438             
1 51634U 22012N   25142.45768169  .00000470  00000+0  13108-2 0  9991
2 51634  87.8804 114.1912 0002127  80.1860 279.9507 13.10369740158175
ONEWEB-0439             
1 51635U 22012P   25142.46099901  .00000324  00000+0  89138-3 0  9999
2 51635  87.8804 114.1780 0001973  84.1023 276.0329 13.10368621158157
ONEWEB-0442             
1 51636U 22012Q   25142.58896920 -.00000024  00000+0 -93926-4 0  9999
2 51636  87.9067  83.6628 0002660  74.2093 285.9331 13.17652120162235
ONEWEB-0443             
1 51637U 22012R   25142.53243718  .00000033  00000+0  52431-4 0  9990
2 51637  87.9067  83.6873 0002015  71.4566 288.6785 13.17648756162273
ONEWEB-0444             
1 51638U 22012S   25142.45104619  .00000654  00000+0  18366-2 0  9994
2 51638  87.8802 114.1845 0001882  83.9579 276.1763 13.10371402158167
ONEWEB-0445             
1 51639U 22012T   25142.47261012 -.00000281  00000+0 -84212-3 0  9990
2 51639  87.8793 114.1363 0002220  85.4841 274.6540 13.10369758158176
ONEWEB-0446             
1 51640U 22012U   25142.44938946  .00000688  00000+0  19335-2 0  9998
2 51640  87.8807 114.1966 0002250  88.7706 271.3679 13.10371710158158
ONEWEB-0448             
1 51641U 22012V   25142.45436490  .00000571  00000+0  15980-2 0  9990
2 51641  87.8806 114.1953 0002044  83.1991 276.9369 13.10369970158129
ONEWEB-0449             
1 51642U 22012W   25142.45934169  .00000401  00000+0  11124-2 0  9995
2 51642  87.8798 114.1705 0002181  71.8479 288.2886 13.10369418158130
ONEWEB-0451             
1 51643U 22012X   25142.59318891  .00000018  00000+0  12682-4 0  9995
2 51643  87.9057  83.6053 0002141  76.4497 283.6873 13.17648262162227
ONEWEB-0452             
1 51644U 22012Y   25142.59149048 -.00000005  00000+0 -45955-4 0  9999
2 51644  87.9063  83.6663 0002029  71.6206 288.5146 13.17647578162239
